HST                     
1 20580U 90037B   26198.45581848  .00003068  00000+0  91867-4 0  9994
2 20580  28.4720 233.6461 0002182 125.5057 234.5742 15.31074052793210
POLAR                   
1 23802U 96013A   26196.53578426  .00000188  00000+0  00000+0 0  9993
2 23802  79.8926 226.7156 6498828 208.1023  91.7323  1.29846063145237
SWAS                    
1 25560U 98071A   26198.29535404  .00001543  00000+0  10187-3 0  9993
2 25560  69.8942 149.8668 0007784 228.2757 131.7742 15.09754656501817
CXO                     
1 25867U 99040B   26201.11356867  .00000551  00000+0  00000+0 0  9997
2 25867  56.6395 115.7467 7780937 310.0076   0.5836  0.37806069 17440
XMM-NEWTON              
1 25989U 99066A   26199.26509818 -.00000005  00000+0  00000+0 0  9993
2 25989  64.3180 282.5861 4665036  64.3602 359.9798  0.50127855 23154
TERRA                   
1 25994U 99068A   26198.70576780  .00000157  00000+0  40985-4 0  9999
2 25994  97.9440 247.0394 0003505 117.7508 347.4287 14.61124752414068
CLUSTER II-FM7 (SAMBA)  
1 26410U 00041A   26197.13957185  .00051232 -58450-4  00000+0 0  9991
2 26410 149.8273  56.2567 9088690 273.7641 359.2168  0.44844033 20444
CLUSTER II-FM8 (TANGO)  
1 26464U 00045B   26195.45112017  .00019821  00000+0  00000+0 0  9994
2 26464 150.0407  57.1141 9091460 274.4512   1.9889  0.44421596 20433
ODIN                    
1 26702U 01007A   26198.06838138  .00291443  33379-4  95323-3 0  9995
2 26702  97.3705 241.2154 0005205 152.9850 207.1695 15.90578805394128
TIMED                   
1 26998U 01055B   26198.65005738  .00000516  00000+0  50358-4 0  9991
2 26998  74.0666 173.6789 0002287 298.3729  61.7225 14.95347210335375
CORIOLIS                
1 27640U 03001A   26198.49707691  .00000034  00000+0  36449-4 0  9998
2 27640  98.7135 204.9199 0014996 122.9181 237.3440 14.19952245218524
SORCE                   
1 27651U 03004A   26198.68835792  .00001207  00000+0  96854-4 0  9997
2 27651  39.9914  87.6347 0018786 271.1879  88.6763 15.03848605276494
MOST                    
1 27843U 03031D   26198.48184338  .00000006  00000+0  22747-4 0  9997
2 27843  98.7054 205.7857 0010242 158.7137 201.4469 14.21327973195015
SCISAT 1                
1 27858U 03036A   26198.07340351  .00000261  00000+0  38016-4 0  9991
2 27858  73.9301 111.9632 0007276 179.5832 180.5352 14.81480077235874
SWIFT                   
1 28485U 04047A   26198.56074466  .00038109  00000+0  27754-3 0  9994
2 28485  20.5527 310.0785 0002277  47.3664 312.6974 15.71352903191641
HINODE (SOLAR-B)        
1 29479U 06041A   26198.50367919  .00000253  00000+0  51822-4 0  9999
2 29479  98.0548 214.2093 0017218 187.0296 173.0670 14.68659732 59324
SHIJIAN-6 02A (SJ-6 02A)
1 29505U 06046A   26198.69537148  .00003962  00000+0  20247-3 0  9993
2 29505  97.6338 239.9950 0004269  57.9326 302.2321 15.17263455 76891
SHIJIAN-6 02B (SJ-6 02B)
1 29506U 06046B   26198.66999809  .00000478  00000+0  41697-4 0  9999
2 29506  97.7137 227.5397 0013137 327.7147  32.3271 15.01440248 75312
FGRST (GLAST)           
1 33053U 08029A   26198.67456325  .00001849  00000+0  60525-4 0  9990
2 33053  25.5830 352.7696 0007879 329.5730  30.4350 15.24084654   348
SDO                     
1 36395U 10005A   26198.24011013 -.00000096  00000+0  00000+0 0  9994
2 36395  34.7122  85.8846 0001790  45.4971 147.9067  1.00277241 60366
CRYOSAT 2               
1 36508U 10013A   26198.68207161  .00000096  00000+0  23181-4 0  9997
2 36508  92.0358 284.7151 0002424  98.8469 261.3013 14.51898917862505
X-SAT                   
1 37389U 11015C   26198.76477568  .00000078  00000+0  50684-4 0  9995
2 37389  98.3531 174.3350 0012740 252.5979 107.3809 14.25214261792034
GCOM-W1 (SHIZUKU)       
1 38337U 12025A   26198.61184595  .00000180  00000+0  50000-4 0  9996
2 38337  98.2024 138.7075 0001293  78.6885  94.1040 14.57091228753461
NUSTAR                  
1 38358U 12031A   26198.75003471 -.00002552  00000+0 -20868-3 0  9999
2 38358   6.0259 164.8377 0008417 213.0023  32.7509 15.09057877  1307
NEOSSAT                 
1 39089U 13009D   26198.45337421  .00000041  00000+0  29050-4 0  9991
2 39089  98.4192  17.7684 0011578 150.8204 209.3631 14.35836099701087
BRITE-AUSTRIA           
1 39091U 13009F   26198.50657966  .00000060  00000+0  35009-4 0  9991
2 39091  98.4010  17.1942 0010890 144.2011 215.9907 14.36553023701408
IRIS                    
1 39197U 13033A   26198.26578925  .00000498  00000+0  63214-4 0  9999
2 39197  97.9318  37.4480 0023466 217.9016 142.0548 14.85939174704849
HISAKI (SPRINT-A)       
1 39253U 13049A   26198.69259306  .00000091  00000+0  32270-4 0  9992
2 39253  29.7216  64.9156 0136986 264.1172  94.3770 13.55546838635561
CASSIOPE                
1 39265U 13055A   26198.64155470  .00015635 -54295-6  16705-3 0  9991
2 39265  80.9127  29.6579 0282486 319.5810  38.4730 15.27505409672311
STSAT-3                 
1 39422U 13066G   26198.67419889  .00001598  00000+0  12353-3 0  9993
2 39422  97.6199 168.0704 0008862 295.3745  64.6562 15.02894174688785
SWARM B                 
1 39451U 13067A   26198.70508417  .00001863  00000+0  65451-4 0  9999
2 39451  87.7463 333.0462 0002247  85.0682 275.0824 15.28726361687903
