OBJECT_NAME,OBJECT_ID,EPOCH,MEAN_MOTION,ECCENTRICITY,INCLINATION,RA_OF_ASC_NODE,ARG_OF_PERICENTER,MEAN_ANOMALY,EPHEMERIS_TYPE,CLASSIFICATION_TYPE,NORAD_CAT_ID,ELEMENT_SET_NO,REV_AT_EPOCH,BSTAR,MEAN_MOTION_DOT,MEAN_MOTION_DDOT
HST,1990-037B,2026-07-17T10:56:22.716672,15.31074052,.0002182,28.4720,233.6461,125.5057,234.5742,0,U,20580,999,79321,.91867E-4,.3068E-4,0
POLAR,1996-013A,2026-07-15T12:51:31.760064,1.29846063,.6498828,79.8926,226.7156,208.1023,91.7323,0,U,23802,999,14523,0,.188E-5,0
SWAS,1998-071A,2026-07-17T07:05:18.589056,15.09754656,.0007784,69.8942,149.8668,228.2757,131.7742,0,U,25560,999,50181,.10187E-3,.1543E-4,0
CXO,1999-040B,2026-07-20T02:43:32.333088,0.37806069,.7780937,56.6395,115.7467,310.0076,0.5836,0,U,25867,999,1744,0,.551E-5,0
XMM-NEWTON,1999-066A,2026-07-18T06:21:44.482752,0.50127855,.46650361,64.3180,282.5861,64.3602,359.9798,0,U,25989,999,2315,0,-.5E-7,0
TERRA,1999-068A,2026-07-17T16:56:18.337920,14.61124752,.0003505,97.9440,247.0394,117.7508,347.4287,0,U,25994,999,41406,.40985E-4,.157E-5,0
CLUSTER II-FM7 (SAMBA),2000-041A,2026-07-16T03:20:59.007840,0.44844033,.90886903,149.8273,56.2567,273.7641,359.2168,0,U,26410,999,2044,0,.51232E-3,-.58450349E-4
CLUSTER II-FM8 (TANGO),2000-045B,2026-07-14T10:49:36.782688,0.44421596,.909146,150.0407,57.1141,274.4512,1.9889,0,U,26464,999,2043,0,.19821E-3,0
ODIN,2001-007A,2026-07-17T01:38:28.151232,15.90578805,.0005205,97.3705,241.2154,152.9850,207.1695,0,U,26702,999,39412,.95322753E-3,.291443E-2,.33378932E-4
TIMED,2001-055B,2026-07-17T15:36:04.957632,14.95347210,.0002287,74.0666,173.6789,298.3729,61.7225,0,U,26998,999,33537,.50358E-4,.516E-5,0
CORIOLIS,2003-001A,2026-07-17T11:55:47.445024,14.19952245,.0014996,98.7135,204.9199,122.9181,237.3440,0,U,27640,999,21852,.36449E-4,.34E-6,0
SORCE,2003-004A,2026-07-17T16:31:14.124288,15.03848605,.0018786,39.9914,87.6347,271.1879,88.6763,0,U,27651,999,27649,.96854E-4,.1207E-4,0
MOST,2003-031D,2026-07-17T11:33:51.268032,14.21327973,.0010242,98.7054,205.7857,158.7137,201.4469,0,U,27843,999,19501,.22747E-4,.6E-7,0
SCISAT 1,2003-036A,2026-07-17T01:45:42.063264,14.81480077,.0007276,73.9301,111.9632,179.5832,180.5352,0,U,27858,999,23587,.38016E-4,.261E-5,0
SWIFT,2004-047A,2026-07-17T13:27:28.338624,15.71352903,.0002277,20.5527,310.0785,47.3664,312.6974,0,U,28485,999,19164,.27754E-3,.38109E-3,0
HINODE (SOLAR-B),2006-041A,2026-07-17T12:05:17.882016,14.68659732,.0017218,98.0548,214.2093,187.0296,173.0670,0,U,29479,999,5932,.51822E-4,.253E-5,0
SHIJIAN-6 02A (SJ-6 02A),2006-046A,2026-07-17T16:41:20.095872,15.17263455,.0004269,97.6338,239.9950,57.9326,302.2321,0,U,29505,999,7689,.20247E-3,.3962E-4,0
SHIJIAN-6 02B (SJ-6 02B),2006-046B,2026-07-17T16:04:47.834976,15.01440248,.0013137,97.7137,227.5397,327.7147,32.3271,0,U,29506,999,7531,.41697E-4,.478E-5,0
FGRST (GLAST),2008-029A,2026-07-17T16:11:22.264800,15.24084654,.0007879,25.5830,352.7696,329.5730,30.4350,0,U,33053,999,34,.60525E-4,.1849E-4,0
SDO,2010-005A,2026-07-17T05:45:45.515232,1.00277241,.000179,34.7122,85.8846,45.4971,147.9067,0,U,36395,999,6036,0,-.96E-6,0
CRYOSAT 2,2010-013A,2026-07-17T16:22:10.987104,14.51898917,.0002424,92.0358,284.7151,98.8469,261.3013,0,U,36508,999,86250,.23181E-4,.96E-6,0
X-SAT,2011-015C,2026-07-17T18:21:16.618752,14.25214261,.001274,98.3531,174.3350,252.5979,107.3809,0,U,37389,999,79203,.50684E-4,.78E-6,0
GCOM-W1 (SHIZUKU),2012-025A,2026-07-17T14:41:03.490080,14.57091228,.0001293,98.2024,138.7075,78.6885,94.1040,0,U,38337,999,75346,.5E-4,.18E-5,0
NUSTAR,2012-031A,2026-07-17T18:00:02.998944,15.09057877,.0008417,6.0259,164.8377,213.0023,32.7509,0,U,38358,999,130,-.20868E-3,-.2552E-4,0
NEOSSAT,2013-009D,2026-07-17T10:52:51.531744,14.35836099,.0011578,98.4192,17.7684,150.8204,209.3631,0,U,39089,999,70108,.2905E-4,.41E-6,0
BRITE-AUSTRIA,2013-009F,2026-07-17T12:09:28.482624,14.36553023,.001089,98.4010,17.1942,144.2011,215.9907,0,U,39091,999,70140,.35009E-4,.6E-6,0
IRIS,2013-033A,2026-07-17T06:22:44.191200,14.85939174,.0023466,97.9318,37.4480,217.9016,142.0548,0,U,39197,999,70484,.63214E-4,.498E-5,0
HISAKI (SPRINT-A),2013-049A,2026-07-17T16:37:20.040384,13.55546838,.0136986,29.7216,64.9156,264.1172,94.3770,0,U,39253,999,63556,.3227E-4,.91E-6,0
CASSIOPE,2013-055A,2026-07-17T15:23:50.326080,15.27505409,.0282486,80.9127,29.6579,319.5810,38.4730,0,U,39265,999,67231,.16705E-3,.15635E-3,-.54295E-6
STSAT-3,2013-066G,2026-07-17T16:10:50.784096,15.02894174,.0008862,97.6199,168.0704,295.3745,64.6562,0,U,39422,999,68878,.12353E-3,.1598E-4,0
SWARM B,2013-067A,2026-07-17T16:55:19.272288,15.28726361,.0002247,87.7463,333.0462,85.0682,275.0824,0,U,39451,999,68790,.65451E-4,.1863E-4,0
